H1 CPF 01  gfz 2022 04 18 00  6081 terrasarx 
H2 0702601  6201 31698    2022 04 18 00 59 42 2022 04 23 00 00 42   120 1 1  0 0 0
H9
10 0 59687  69822.000000  0    2905112.152   -216861.381  -6249283.718
10 0 59687  69942.000000  0    3635598.203   -583257.332  -5829241.034
10 0 59687  70062.000000  0    4296579.426   -951709.727  -5307344.513
10 0 59687  70182.000000  0    4876548.069  -1314493.063  -4692625.029
10 0 59687  70302.000000  0    5365511.340  -1663778.062  -3995748.630
10 0 59687  70422.000000  0    5755172.480  -1991796.096  -3228841.216
10 0 59687  70542.000000  0    6039082.589  -2291007.527  -2405284.664
10 0 59687  70662.000000  0    6212758.661  -2554270.262  -1539486.703
10 0 59687  70782.000000  0    6273764.270  -2775003.941   -646628.919
10 0 59687  70902.000000  0    6221751.062  -2947345.997    257602.781
10 0 59687  71022.000000  0    6058458.708  -3066295.328   1157299.945
10 0 59687  71142.000000  0    5787673.490  -3127839.741   2036620.546
10 0 59687  71262.000000  0    5415143.060  -3129063.317   2880077.476
10 0 59687  71382.000000  0    4948452.871  -3068231.183   3672819.173
10 0 59687  71502.000000  0    4396866.301  -2944848.263   4400896.570
10 0 59687  71622.000000  0    3771135.390  -2759693.389   5051511.320
10 0 59687  71742.000000  0    3083282.884  -2514827.036   5613242.370
10 0 59687  71862.000000  0    2346363.173  -2213571.073   6076243.154
10 0 59687  71982.000000  0    1574208.879  -1860463.341   6432409.229
10 0 59687  72102.000000  0     781167.112  -1461187.824   6675514.305
10 0 59687  72222.000000  0     -18169.590  -1022481.338   6801312.929
10 0 59687  72342.000000  0    -809231.906   -552018.463   6807609.361
10 0 59687  72462.000000  0   -1577738.027    -58277.252   6694292.916
10 0 59687  72582.000000  0   -2309950.305    449613.157   6463339.858
10 0 59687  72702.000000  0   -2992920.228    962040.529   6118781.487
10 0 59687  72822.000000  0   -3614718.422   1469090.303   5666638.657
10 0 59687  72942.000000  0   -4164646.582   1960736.572   5114823.208
10 0 59687  73062.000000  0   -4633427.796   2427040.539   4473006.066
10 0 59687  73182.000000  0   -5013370.097   2858352.452   3752451.792
10 0 59687  73302.000000  0   -5298499.311   3245512.034   2965823.540
10 0 59687  73422.000000  0   -5484659.576   3580043.626   2126961.523
10 0 59687  73542.000000  0   -5569578.981   3854342.444   1250637.422
10 0 59687  73662.000000  0   -5552897.047   4061845.360    352287.671
10 0 59687  73782.000000  0   -5436152.537   4197181.833   -552266.020
10 0 59687  73902.000000  0   -5222733.961   4256302.058  -1447103.857
10 0 59687  74022.000000  0   -4917792.324   4236578.939  -2316498.062
10 0 59687  74142.000000  0   -4528117.135   4136879.234  -3145197.626
10 0 59687  74262.000000  0   -4061981.332   3957603.844  -3918700.234
10 0 59687  74382.000000  0   -3528959.450   3700696.767  -4623506.139
10 0 59687  74502.000000  0   -2939724.402   3369623.622  -5247349.503
10 0 59687  74622.000000  0   -2305829.796   2969320.909  -5779403.664
10 0 59687  74742.000000  0   -1639480.646   2506118.061  -6210460.503
10 0 59687  74862.000000  0    -953296.605   1987632.169  -6533078.754
10 0 59687  74982.000000  0    -260074.781   1422640.157  -6741700.383
10 0 59687  75102.000000  0     427444.690    820929.964  -6832736.279
10 0 59687  75222.000000  0    1096806.607    193133.784  -6804622.102
10 0 59687  75342.000000  0    1736062.237   -449456.297  -6657842.775
10 0 59687  75462.000000  0    2333977.231  -1095086.576  -6394923.577
10 0 59687  75582.000000  0    2880225.279  -1731751.142  -6020391.811
10 0 59687  75702.000000  0    3365564.763  -2347409.449  -5540707.024
10 0 59687  75822.000000  0    3781997.321  -2930211.342  -4964162.092
10 0 59687  75942.000000  0    4122904.018  -3468725.672  -4300749.645
10 0 59687  76062.000000  0    4383154.489  -3952164.901  -3561998.536
10 0 59687  76182.000000  0    4559190.349  -4370603.775  -2760783.188
10 0 59687  76302.000000  0    4649079.597  -4715187.294  -1911104.783
10 0 59687  76422.000000  0    4652539.455  -4978322.736  -1027848.513
10 0 59687  76542.000000  0    4570925.467  -5153850.416   -126520.022
10 0 59687  76662.000000  0    4407187.114  -5237187.152    777032.519
10 0 59687  76782.000000  0    4165791.577  -5225439.863   1666905.037
10 0 59687  76902.000000  0    3852615.377  -5117484.285   2527427.190
10 0 59687  77022.000000  0    3474807.934  -4914008.468   3343445.855
10 0 59687  77142.000000  0    3040630.951  -4617519.642   4100599.108
10 0 59687  77262.000000  0    2559277.321  -4232313.454   4785573.226
10 0 59687  77382.000000  0    2040674.796  -3764407.526   5386338.287
10 0 59687  77502.000000  0    1495278.905  -3221441.545   5892358.205
10 0 59687  77622.000000  0     933859.416  -2612545.233   6294771.672
10 0 59687  77742.000000  0     367285.982  -1948179.309   6586540.923
10 0 59687  77862.000000  0    -193682.764  -1239952.130   6762567.918
10 0 59687  77982.000000  0    -738602.356   -500414.961   6819778.789
10 0 59687  78102.000000  0   -1257535.837    257161.587   6757174.106
10 0 59687  78222.000000  0   -1741234.368   1019025.291   6575845.060
10 0 59687  78342.000000  0   -2181301.681   1771191.066   6278955.524
10 0 59687  78462.000000  0   -2570340.505   2499696.812   5871690.370
10 0 59687  78582.000000  0   -2902078.138   3190863.143   5361170.669
10 0 59687  78702.000000  0   -3171470.332   3831552.436   4756335.889
10 0 59687  78822.000000  0   -3374781.088   4409422.986   4067793.302
10 0 59687  78942.000000  0   -3509635.973   4913173.006   3307636.131
10 0 59687  79062.000000  0   -3575047.686   5332769.002   2489232.413
10 0 59687  79182.000000  0   -3571413.008   5659652.108   1626987.831
10 0 59687  79302.000000  0   -3500480.933   5886916.957    736088.282
10 0 59687  79422.000000  0   -3365293.659   6009461.568   -167773.218
10 0 59687  79542.000000  0   -3170100.372   6024101.623  -1068682.507
10 0 59687  79662.000000  0   -2920246.501   5929644.956  -1950795.084
10 0 59687  79782.000000  0   -2622039.011   5726923.675  -2798624.662
10 0 59687  79902.000000  0   -2282593.926   5418785.427  -3597318.806
10 0 59687  80022.000000  0   -1909671.887   5010046.562  -4332921.166
10 0 59687  80142.000000  0   -1511503.779   4507405.390  -4992613.030
10 0 59687  80262.000000  0   -1096612.618   3919322.293  -5564929.908
10 0 59687  80382.000000  0    -673634.195   3255868.854  -6039953.175
10 0 59687  80502.000000  0    -251139.983   2528547.368  -6409472.407
10 0 59687  80622.000000  0     162533.007   1750086.518  -6667115.004
10 0 59687  80742.000000  0     559441.826    934218.524  -6808445.828
10 0 59687  80862.000000  0     932186.058     95439.376  -6831035.848
10 0 59687  80982.000000  0    1274042.297   -751244.293  -6734499.032
10 0 59687  81102.000000  0    1579081.899  -1590577.614  -6520496.635
10 0 59687  81222.000000  0    1842271.445  -2407324.619  -6192711.596
10 0 59687  81342.000000  0    2059555.406  -3186538.410  -5756793.001
10 0 59687  81462.000000  0    2227919.076  -3913832.902  -5220270.162
10 0 59687  81582.000000  0    2345430.739  -4575650.103  -4592432.170
10 0 59687  81702.000000  0    2411261.669  -5159514.857  -3884177.251
10 0 59687  81822.000000  0    2425683.873  -5654276.349  -3107834.112
10 0 59687  81942.000000  0    2390045.325  -6050330.604  -2276954.528
10 0 59687  82062.000000  0    2306722.848  -6339818.156  -1406080.661
10 0 59687  82182.000000  0    2179052.380  -6516791.388   -510489.860
10 0 59687  82302.000000  0    2011239.645  -6577344.310    394079.232
10 0 59687  82422.000000  0    1808250.667  -6519702.394   1291709.336
10 0 59687  82542.000000  0    1575688.172  -6344272.171   2166593.778
10 0 59687  82662.000000  0    1319653.253  -6053643.461   3003325.049
10 0 59687  82782.000000  0    1046598.402  -5652548.433   3787173.035
10 0 59687  82902.000000  0     763175.250  -5147778.070   4504349.402
10 0 59687  83022.000000  0     476080.706  -4548059.422   5142252.424
10 0 59687  83142.000000  0     191904.691  -3863895.218   5689688.822
10 0 59687  83262.000000  0     -83015.152  -3107369.497   6137067.361
10 0 59687  83382.000000  0    -342729.867  -2291925.218   6476560.583
10 0 59687  83502.000000  0    -581803.992  -1432120.896   6702234.436
10 0 59687  83622.000000  0    -795426.169   -543368.780   6810146.896
10 0 59687  83742.000000  0    -979504.152    358342.772   6798413.592
10 0 59687  83862.000000  0   -1130742.551   1256737.104   6667238.557
10 0 59687  83982.000000  0   -1246701.371   2135542.393   6418910.612
10 0 59687  84102.000000  0   -1325835.297   2978785.828   6057766.092
10 0 59687  84222.000000  0   -1367513.465   3771084.814   5590117.711
10 0 59687  84342.000000  0   -1372018.352   4497930.226   5024149.988
10 0 59687  84462.000000  0   -1340524.614   5145957.869   4369782.745
10 0 59687  84582.000000  0   -1275057.974   5703202.323   3638501.401
10 0 59687  84702.000000  0   -1178434.701   6159326.055   2843158.527
10 0 59687  84822.000000  0   -1054185.115   6505822.439   1997748.778
10 0 59687  84942.000000  0    -906457.804   6736184.114   1117158.126
10 0 59687  85062.000000  0    -739909.949   6846031.561    216895.941
10 0 59687  85182.000000  0    -559586.213   6833201.144   -687185.325
10 0 59687  85302.000000  0    -370788.954   6697788.812  -1579179.618
10 0 59687  85422.000000  0    -178943.737   6442144.916  -2443417.112
10 0 59687  85542.000000  0      10535.713   6070823.888  -3264744.917
10 0 59687  85662.000000  0     192380.405   5590492.702  -4028795.452
10 0 59687  85782.000000  0     361594.376   5009799.276  -4722237.782
10 0 59687  85902.000000  0     513574.827   4339204.382  -5333006.518
10 0 59687  86022.000000  0     644221.423   3590782.176  -5850504.754
10 0 59687  86142.000000  0     750031.790   2777993.665  -6265778.487
10 0 59687  86262.000000  0     828181.954   1915438.856  -6571660.080
99
